{
    "links": {
        "self": "http://www.neowsapp.com/rest/v1/neo/3251590?api_key=iIulBulltgU6a56xZRHN4H3l9WmuAYTsLGpBGhQ2"
    },
    "id": "3251590",
    "neo_reference_id": "3251590",
    "name": "(2004 RC80)",
    "designation": "2004 RC80",
    "nasa_jpl_url": "http://ssd.jpl.nasa.gov/sbdb.cgi?sstr=3251590",
    "absolute_magnitude_h": 24.4,
    "estimated_diameter": {
        "kilometers": {
            "estimated_diameter_min": 0.0350392641,
            "estimated_diameter_max": 0.0783501764
        },
        "meters": {
            "estimated_diameter_min": 35.0392641108,
            "estimated_diameter_max": 78.3501764334
        },
        "miles": {
            "estimated_diameter_min": 0.0217723826,
            "estimated_diameter_max": 0.0486845275
        },
        "feet": {
            "estimated_diameter_min": 114.9582192654,
            "estimated_diameter_max": 257.0543928497
        }
    },
    "is_potentially_hazardous_asteroid": false,
    "close_approach_data": [
        {
            "close_approach_date": "2002-10-09",
            "close_approach_date_full": "2002-Oct-09 14:31",
            "epoch_date_close_approach": 1034173860000,
            "relative_velocity": {
                "kilometers_per_second": "17.1724786506",
                "kilometers_per_hour": "61820.9231421366",
                "miles_per_hour": "38413.1174935126"
            },
            "miss_distance": {
                "astronomical": "0.4384084889",
                "lunar": "170.5409021821",
                "kilometers": "65584976.129358643",
                "miles": "40752614.4429415534"
            },
            "orbiting_body": "Earth"
        },
        {
            "close_approach_date": "2004-09-09",
            "close_approach_date_full": "2004-Sep-09 22:43",
            "epoch_date_close_approach": 1094769780000,
            "relative_velocity": {
                "kilometers_per_second": "8.7276305093",
                "kilometers_per_hour": "31419.4698333773",
                "miles_per_hour": "19522.8366861894"
            },
            "miss_distance": {
                "astronomical": "0.0476153378",
                "lunar": "18.5223664042",
                "kilometers": "7123153.114210486",
                "miles": "4426122.1031612668"
            },
            "orbiting_body": "Earth"
        },
        {
            "close_approach_date": "2006-08-01",
            "close_approach_date_full": "2006-Aug-01 23:45",
            "epoch_date_close_approach": 1154475900000,
            "relative_velocity": {
                "kilometers_per_second": "14.4839577387",
                "kilometers_per_hour": "52142.2478594075",
                "miles_per_hour": "32399.1650657524"
            },
            "miss_distance": {
                "astronomical": "0.3819726097",
                "lunar": "148.5873451733",
                "kilometers": "57142288.809461339",
                "miles": "35506571.8045869182"
            },
            "orbiting_body": "Earth"
        }
    ],
    "orbital_data": {
        "orbit_id": "12",
        "orbit_determination_date": "2017-04-06 09:12:21",
        "first_observation_date": "2004-09-09",
        "last_observation_date": "2004-09-18",
        "data_arc_in_days": 9,
        "observations_used": 54,
        "orbit_uncertainty": "8",
        "minimum_orbit_intersection": ".0435872",
        "jupiter_tisserand_invariant": "4.354",
        "epoch_osculation": "2453262.5",
        "eccentricity": ".3241759772279228",
        "semi_major_axis": "1.553093761963001",
        "inclination": "13.94631005968501",
        "ascending_node_longitude": "347.2458179483663",
        "orbital_period": "706.9601593834731",
        "perihelion_distance": "1.049618073952054",
        "perihelion_argument": "353.7125044719185",
        "aphelion_distance": "2.056569449973948",
        "perihelion_time": "2453253.211804930879",
        "mean_anomaly": "4.729757653952641",
        "mean_motion": ".5092224720470095",
        "equinox": "J2000",
        "orbit_class": {
            "orbit_class_type": "AMO",
            "orbit_class_description": "Near-Earth asteroid orbits similar to that of 1221 Amor",
            "orbit_class_range": "1.017 AU < q (perihelion) < 1.3 AU"
        }
    },
    "is_sentry_object": false
}